{
  "type": "FeatureCollection",
  "features": [
    {
      "type": "Feature",
      "properties": {
        "norad_id": 30828,
        "name": "FENGYUN 1C DEB",
        "group": "fengyun-1c-debris",
        "lat": 41.510512750224045,
        "lon": 93.70089434072896,
        "alt_km": 690.7776257762498,
        "timestamp": "2025-12-19T22:41:52.672233+00:00",
        "meta_object_name": "FENGYUN 1C DEB",
        "meta_object_id": "1999-025AVN",
        "meta_epoch": "2025-12-18T06:00:20.456928",
        "meta_mean_motion": 14.77171734,
        "meta_eccentricity": 0.02088331,
        "meta_inclination": 98.3758,
        "meta_ra_of_asc_node": 99.4323,
        "meta_arg_of_pericenter": 161.1351,
        "meta_mean_anomaly": 232.0344,
        "meta_ephemeris_type": 0,
        "meta_classification_type": "U",
        "meta_norad_cat_id": 30828,
        "meta_element_set_no": 999,
        "meta_rev_at_epoch": 98738,
        "meta_bstar": 0.0015879222,
        "meta_mean_motion_dot": 0.00016121,
        "meta_mean_motion_ddot": 0,
        "tle_line1": "1 30828U 99025AVN 25352.25023677  .00016121  00000+0  15879-2 0  9997",
        "tle_line2": "2 30828  98.3758  99.4323 0208833 161.1351 232.0344 14.77171734987380"
      },
      "geometry": {
        "type": "Point",
        "coordinates": [
          93.70089434072896,
          41.510512750224045
        ]
      }
    },
    {
      "type": "Feature",
      "properties": {
        "norad_id": 30829,
        "name": "FENGYUN 1C DEB",
        "group": "fengyun-1c-debris",
        "lat": 64.65473535701989,
        "lon": -174.56106967563883,
        "alt_km": 881.5641516458309,
        "timestamp": "2025-12-19T22:41:52.672243+00:00",
        "meta_object_name": "FENGYUN 1C DEB",
        "meta_object_id": "1999-025AVP",
        "meta_epoch": "2025-12-17T05:22:50.536992",
        "meta_mean_motion": 14.08660989,
        "meta_eccentricity": 0.00353029,
        "meta_inclination": 98.7772,
        "meta_ra_of_asc_node": 343.7533,
        "meta_arg_of_pericenter": 321.8624,
        "meta_mean_anomaly": 38.0048,
        "meta_ephemeris_type": 0,
        "meta_classification_type": "U",
        "meta_norad_cat_id": 30829,
        "meta_element_set_no": 999,
        "meta_rev_at_epoch": 96496,
        "meta_bstar": 0.00035091646,
        "meta_mean_motion_dot": 5.64e-06,
        "meta_mean_motion_ddot": 0,
        "tle_line1": "1 30829U 99025AVP 25351.22419603  .00000564  00000+0  35092-3 0  9996",
        "tle_line2": "2 30829  98.7772 343.7533 0035302 321.8624  38.0048 14.08660989964969"
      },
      "geometry": {
        "type": "Point",
        "coordinates": [
          -174.56106967563883,
          64.65473535701989
        ]
      }
    },
    {
      "type": "Feature",
      "properties": {
        "norad_id": 30830,
        "name": "FENGYUN 1C DEB",
        "group": "fengyun-1c-debris",
        "lat": 57.95410360922586,
        "lon": -32.051060103766694,
        "alt_km": 853.3852224787724,
        "timestamp": "2025-12-19T22:41:52.672252+00:00",
        "meta_object_name": "FENGYUN 1C DEB",
        "meta_object_id": "1999-025AVQ",
        "meta_epoch": "2025-12-19T11:13:56.201376",
        "meta_mean_motion": 14.12235665,
        "meta_eccentricity": 0.0031014,
        "meta_inclination": 98.7297,
        "meta_ra_of_asc_node": 341.6923,
        "meta_arg_of_pericenter": 169.5605,
        "meta_mean_anomaly": 342.3953,
        "meta_ephemeris_type": 0,
        "meta_classification_type": "U",
        "meta_norad_cat_id": 30830,
        "meta_element_set_no": 999,
        "meta_rev_at_epoch": 96694,
        "meta_bstar": 0.00018668,
        "meta_mean_motion_dot": 3.02e-06,
        "meta_mean_motion_ddot": 0,
        "tle_line1": "1 30830U 99025AVQ 25353.46801159  .00000302  00000+0  18668-3 0  9997",
        "tle_line2": "2 30830  98.7297 341.6923 0031014 169.5605 342.3953 14.12235665966945"
      },
      "geometry": {
        "type": "Point",
        "coordinates": [
          -32.051060103766694,
          57.95410360922586
        ]
      }
    },
    {
      "type": "Feature",
      "properties": {
        "norad_id": 30831,
        "name": "FENGYUN 1C DEB",
        "group": "fengyun-1c-debris",
        "lat": 31.008288961158176,
        "lon": 141.56485419172108,
        "alt_km": 748.6056267555887,
        "timestamp": "2025-12-19T22:41:52.672263+00:00",
        "meta_object_name": "FENGYUN 1C DEB",
        "meta_object_id": "1999-025AVR",
        "meta_epoch": "2025-12-19T04:05:43.603584",
        "meta_mean_motion": 14.31100887,
        "meta_eccentricity": 0.00553007,
        "meta_inclination": 99.3283,
        "meta_ra_of_asc_node": 146.4032,
        "meta_arg_of_pericenter": 15.6425,
        "meta_mean_anomaly": 344.6449,
        "meta_ephemeris_type": 0,
        "meta_classification_type": "U",
        "meta_norad_cat_id": 30831,
        "meta_element_set_no": 999,
        "meta_rev_at_epoch": 65342,
        "meta_bstar": 0.00031120518,
        "meta_mean_motion_dot": 7.84e-06,
        "meta_mean_motion_ddot": 0,
        "tle_line1": "1 30831U 99025AVR 25353.17064356  .00000784  00000+0  31121-3 0  9999",
        "tle_line2": "2 30831  99.3283 146.4032 0055300  15.6425 344.6449 14.31100887653424"
      },
      "geometry": {
        "type": "Point",
        "coordinates": [
          141.56485419172108,
          31.008288961158176
        ]
      }
    },
    {
      "type": "Feature",
      "properties": {
        "norad_id": 30833,
        "name": "FENGYUN 1C DEB",
        "group": "fengyun-1c-debris",
        "lat": -59.35124183284473,
        "lon": 157.96111419726725,
        "alt_km": 827.3827812173959,
        "timestamp": "2025-12-19T22:41:52.672273+00:00",
        "meta_object_name": "FENGYUN 1C DEB",
        "meta_object_id": "1999-025AVT",
        "meta_epoch": "2025-12-18T15:00:23.734080",
        "meta_mean_motion": 14.26773716,
        "meta_eccentricity": 0.00330966,
        "meta_inclination": 99.8446,
        "meta_ra_of_asc_node": 139.4372,
        "meta_arg_of_pericenter": 164.3233,
        "meta_mean_anomaly": 195.8976,
        "meta_ephemeris_type": 0,
        "meta_classification_type": "U",
        "meta_norad_cat_id": 30833,
        "meta_element_set_no": 999,
        "meta_rev_at_epoch": 64495,
        "meta_bstar": 0.00044992158,
        "meta_mean_motion_dot": 1.042e-05,
        "meta_mean_motion_ddot": 0,
        "tle_line1": "1 30833U 99025AVT 25352.62527470  .00001042  00000+0  44992-3 0  9999",
        "tle_line2": "2 30833  99.8446 139.4372 0033096 164.3233 195.8976 14.26773716644958"
      },
      "geometry": {
        "type": "Point",
        "coordinates": [
          157.96111419726725,
          -59.35124183284473
        ]
      }
    },
    {
      "type": "Feature",
      "properties": {
        "norad_id": 30836,
        "name": "FENGYUN 1C DEB",
        "group": "fengyun-1c-debris",
        "lat": 62.722786290268324,
        "lon": 9.06141702933799,
        "alt_km": 864.1141045790228,
        "timestamp": "2025-12-19T22:41:52.672283+00:00",
        "meta_object_name": "FENGYUN 1C DEB",
        "meta_object_id": "1999-025AVW",
        "meta_epoch": "2025-12-17T21:04:21.892224",
        "meta_mean_motion": 14.1194105,
        "meta_eccentricity": 0.00258656,
        "meta_inclination": 98.7444,
        "meta_ra_of_asc_node": 24.4125,
        "meta_arg_of_pericenter": 229.6421,
        "meta_mean_anomaly": 130.2492,
        "meta_ephemeris_type": 0,
        "meta_classification_type": "U",
        "meta_norad_cat_id": 30836,
        "meta_element_set_no": 999,
        "meta_rev_at_epoch": 62076,
        "meta_bstar": 0.00033363264,
        "meta_mean_motion_dot": 5.69e-06,
        "meta_mean_motion_ddot": 0,
        "tle_line1": "1 30836U 99025AVW 25351.87803116  .00000569  00000+0  33363-3 0  9995",
        "tle_line2": "2 30836  98.7444  24.4125 0025865 229.6421 130.2492 14.11941050620766"
      },
      "geometry": {
        "type": "Point",
        "coordinates": [
          9.06141702933799,
          62.722786290268324
        ]
      }
    },
    {
      "type": "Feature",
      "properties": {
        "norad_id": 30837,
        "name": "FENGYUN 1C DEB",
        "group": "fengyun-1c-debris",
        "lat": 5.097481107248993,
        "lon": 160.76005196784743,
        "alt_km": 834.6065147479485,
        "timestamp": "2025-12-19T22:41:52.672293+00:00",
        "meta_object_name": "FENGYUN 1C DEB",
        "meta_object_id": "1999-025AVX",
        "meta_epoch": "2025-12-19T10:42:32.880096",
        "meta_mean_motion": 14.14529792,
        "meta_eccentricity": 0.0033199,
        "meta_inclination": 98.679,
        "meta_ra_of_asc_node": 339.4939,
        "meta_arg_of_pericenter": 114.7059,
        "meta_mean_anomaly": 37.3307,
        "meta_ephemeris_type": 0,
        "meta_classification_type": "U",
        "meta_norad_cat_id": 30837,
        "meta_element_set_no": 999,
        "meta_rev_at_epoch": 96913,
        "meta_bstar": 0.00024687,
        "meta_mean_motion_dot": 4.34e-06,
        "meta_mean_motion_ddot": 0,
        "tle_line1": "1 30837U 99025AVX 25353.44621389  .00000434  00000+0  24687-3 0  9991",
        "tle_line2": "2 30837  98.6790 339.4939 0033199 114.7059  37.3307 14.14529792969139"
      },
      "geometry": {
        "type": "Point",
        "coordinates": [
          160.76005196784743,
          5.097481107248993
        ]
      }
    }
  ]
}